390P/Gibbs,e,18.5592,152.2782,232.3429,5.800075,0.0705592,0.70693637,11.1316,08/27.0/2020,2000,g 12.0,4.0
# From MPEC 2020-AA5
391P/Kowalski,e,21.2762,124.7299,186.7292,4.676403,0.0974622,0.12082676,86.9095,08/27.0/2020,2000,g  8.0,4.0
# From MPEC 2020-HN5
392P/LINEAR,e,4.9295,24.8840,71.9903,6.149321,0.0646343,0.68286563,9.5770,08/27.0/2020,2000,g 14.5,4.0
# From MPEC 2020-K19
393P/Spacewatch-Hill,e,16.7950,36.4214,328.0423,4.784007,0.0941925,0.12024837,29.0064,08/27.0/2020,2000,g 11.0,4.0
# From MPEC 2020-KB7
394P/PANSTARRS,e,8.5295,98.1252,54.5158,4.332966,0.1092764,0.36811426,29.5709,08/27.0/2020,2000,g 16.0,2.4
# From MPEC 2020-K19
395P/Catalina-NEAT,e,3.2800,223.8047,89.8390,6.524310,0.0591428,0.37702705,330.9225,08/27.0/2020,2000,g 10.0,4.0
# From MPEC 2020-KB7
396P/,e,5.4363,136.6608,8.6603,6.824112,0.0552885,0.41634532,20.1236,08/27.0/2020,2000,g 12.0,4.0
# From MPC107687
1I/`Oumuamua,h,09/09.4886/2017,122.6778,24.5997,241.6845,1.199252,0.255240,2000,23.0,2.0
# From MPEC 2020-K19
2I/Borisov,h,12/08.5549/2019,44.0527,308.1480,209.1251,3.356636,2.006548,2000,11.0,4.0
